     2.10           G: GLONASS NAV DATA                     RINEX VERSION / TYPE
teqc  2015Jun23                         20220506 01:25:40UTCPGM / RUN BY / DATE
Linux 2.4.21-27.ELsmp|Opteron|gcc -static|Linux x86_64|=+   COMMENT
  2022     4    25   -1.396983861923D-09                    CORR TO SYSTEM TIME
                                                            END OF HEADER
 5 22  4 26  0 15  0.0 9.179580956697D-05 0.000000000000D+00 0.000000000000D+00
   -6.150285156250D+03 2.006149291992D-02-2.793967723846D-09 0.000000000000D+00
    1.935595800781D+04-2.118474960327D+00 1.862645149231D-09 1.000000000000D+00
   -1.540227978516D+04-2.669079780579D+00 0.000000000000D+00 0.000000000000D+00
 6 22  4 26  0 15  0.0-4.510488361120D-05-1.818989403546D-12 0.000000000000D+00
    3.969183593750D+03 1.862344741821D-01-2.793967723846D-09 0.000000000000D+00
    2.491524316406D+04 4.915704727173D-01 0.000000000000D+00-4.000000000000D+00
    3.690862792969D+03-3.517235755920D+00-9.313225746155D-10 0.000000000000D+00
 9 22  4 26  0 15  0.0 5.176663398743D-05 2.728484105319D-12 0.000000000000D+00
    9.543981933594D+03-2.267878532410D+00-9.313225746155D-10 0.000000000000D+00
    1.466491552734D+04-1.145169258118D+00-9.313225746155D-10-2.000000000000D+00
    1.860797802734D+04 2.060308456421D+00-2.793967723846D-09 0.000000000000D+00
18 22  4 26  0 15  0.0 1.147631555796D-04 0.000000000000D+00 0.000000000000D+00
   -2.156462353516D+04 1.371238708496D+00-1.862645149231D-09 0.000000000000D+00
    8.098254882812D+03-6.333408355713D-01 1.862645149231D-09-3.000000000000D+00
    1.090325390625D+04 3.190548896790D+00-1.862645149231D-09 0.000000000000D+00
19 22  4 26  0 15  0.0-1.867432147264D-04-9.094947017729D-13 0.000000000000D+00
   -2.022648583984D+04-4.283990859985D-01-2.793967723846D-09 0.000000000000D+00
    1.478750439453D+04 5.564203262329D-01 3.725290298462D-09 3.000000000000D+00
   -4.779717285156D+03 3.537559509277D+00-0.000000000000D+00 0.000000000000D+00
20 22  4 26  0 15  0.0-6.935652345419D-05-9.094947017729D-13 0.000000000000D+00
   -4.961605957031D+03-2.389169692993D+00-1.862645149231D-09 0.000000000000D+00
    1.380674218750D+04 1.581182479858D+00 1.862645149231D-09 2.000000000000D+00
   -2.084907324219D+04 1.619689941406D+00 9.313225746155D-10 0.000000000000D+00
 7 22  4 26  0 15  0.0 3.431458026171D-05 0.000000000000D+00 1.500000000000D+02
    9.670066894531D+03 2.516689300537D-01-9.313225746155D-10 0.000000000000D+00
    1.475863037109D+04 2.506666183472D+00-9.313225746155D-10 5.000000000000D+00
    1.844588330078D+04-2.146656036377D+00-1.862645149231D-09 0.000000000000D+00
18 22  4 26  0 45  0.0 1.147650182247D-04 9.094947017729D-13 1.800000000000D+03
   -1.866970263672D+04 1.799488067627D+00-9.313225746155D-10 0.000000000000D+00
    6.363596191406D+03-1.303024291992D+00 1.862645149231D-09-3.000000000000D+00
    1.614931054688D+04 2.600556373596D+00-1.862645149231D-09 0.000000000000D+00
 7 22  4 26  0 45  0.0 3.431551158428D-05 0.000000000000D+00 1.800000000000D+03
    1.036850976562D+04 4.910602569580D-01-1.862645149231D-09 0.000000000000D+00
    1.869964257812D+04 1.839426040649D+00-0.000000000000D+00 5.000000000000D+00
    1.391983447266D+04-2.849862098694D+00-1.862645149231D-09 0.000000000000D+00
 5 22  4 26  0 45  0.0 9.179674088955D-05 0.000000000000D+00 1.800000000000D+03
   -6.473734863281D+03-4.011392593384D-01-1.862645149231D-09 0.000000000000D+00
    1.502198974609D+04-2.654122352600D+00 2.793967723846D-09 1.000000000000D+00
   -1.954767236328D+04-1.906943321228D+00 9.313225746155D-10 0.000000000000D+00
 6 22  4 26  0 45  0.0-4.510860890150D-05-1.818989403546D-12 1.800000000000D+03
    4.226865722656D+03 5.985450744629D-02-2.793967723846D-09 0.000000000000D+00
    2.500040869141D+04-3.918600082397D-01 1.862645149231D-09-4.000000000000D+00
   -2.701134765625D+03-3.538804054260D+00-0.000000000000D+00 0.000000000000D+00
 9 22  4 26  0 45  0.0 5.176756531000D-05 2.728484105319D-12 1.800000000000D+03
    4.959800781250D+03-2.790825843811D+00-9.313225746155D-10 0.000000000000D+00
    1.276271044922D+04-9.348831176758D-01-9.313225746155D-10-2.000000000000D+00
    2.155215283203D+04 1.189704895020D+00-2.793967723846D-09 0.000000000000D+00
19 22  4 26  0 45  0.0-1.867460086942D-04-9.094947017729D-13 1.800000000000D+03
   -2.028424707031D+04 3.425407409668D-01-1.862645149231D-09 0.000000000000D+00
    1.537086279297D+04 5.462169647217D-02 3.725290298462D-09 3.000000000000D+00
    1.690429199219D+03 3.604795455933D+00-9.313225746155D-10 0.000000000000D+00
20 22  4 26  0 45  0.0-6.935838609934D-05-9.094947017729D-13 1.800000000000D+03
   -8.689576660156D+03-1.730707168579D+00-1.862645149231D-09 0.000000000000D+00
    1.671974462891D+04 1.610089302063D+00 3.725290298462D-09 2.000000000000D+00
   -1.716391894531D+04 2.448385238647D+00 9.313225746155D-10 0.000000000000D+00
 7 22  4 26  1 15  0.0 3.431644290686D-05 0.000000000000D+00 3.600000000000D+03
    1.130150830078D+04 5.045347213745D-01-1.862645149231D-09 0.000000000000D+00
    2.129248730469D+04 1.026109695435D+00 0.000000000000D+00 5.000000000000D+00
    8.318281250000D+03-3.333793640137D+00-1.862645149231D-09 0.000000000000D+00
 9 22  4 26  1 15  0.0 5.177222192287D-05 1.818989403546D-12 3.600000000000D+03
   -3.551748046875D+02-3.068625450134D+00-9.313225746155D-10 0.000000000000D+00
    1.139684619141D+04-5.629987716675D-01 0.000000000000D+00-2.000000000000D+00
    2.283519287109D+04 2.264766693115D-01-2.793967723846D-09 0.000000000000D+00
 5 22  4 26  1 15  0.0 9.179767221212D-05 0.000000000000D+00 3.600000000000D+03
   -7.642541992188D+03-9.020414352417D-01-0.000000000000D+00 0.000000000000D+00
    9.971896484375D+03-2.906626701355D+00 2.793967723846D-09 1.000000000000D+00
   -2.217845654297D+04-9.971599578857D-01 1.862645149231D-09 0.000000000000D+00
 6 22  4 26  1 15  0.0-4.511233419180D-05-1.818989403546D-12 3.600000000000D+03
    4.048578125000D+03-2.918949127197D-01-2.793967723846D-09 0.000000000000D+00
    2.355709960938D+04-1.188213348389D+00 2.793967723846D-09-4.000000000000D+00
   -8.884036132812D+03-3.286433219910D+00-0.000000000000D+00 0.000000000000D+00
19 22  4 26  1 15  0.0-1.867478713393D-04-9.094947017729D-13 3.600000000000D+03
   -1.910043457031D+04 9.360790252686D-01-9.313225746155D-10 0.000000000000D+00
    1.487333251953D+04-6.306943893433D-01 2.793967723846D-09 3.000000000000D+00
    8.029812500000D+03 3.393201828003D+00-9.313225746155D-10 0.000000000000D+00
20 22  4 26  1 15  0.0-6.936024874449D-05-9.094947017729D-13 3.600000000000D+03
   -1.114649169922D+04-9.964189529419D-01-1.862645149231D-09 0.000000000000D+00
    1.943277343750D+04 1.356783866882D+00 3.725290298462D-09 2.000000000000D+00
   -1.214873193359D+04 3.087824821472D+00 0.000000000000D+00 0.000000000000D+00
21 22  4 26  1 15  0.0-2.962704747915D-04-2.728484105319D-12 5.040000000000D+03
    5.113232910156D+03-2.081868171692D+00-9.313225746155D-10 0.000000000000D+00
    9.777947753906D+03 2.368077278137D+00 1.862645149231D-09 4.000000000000D+00
   -2.300411376953D+04 5.421438217163D-01 1.862645149231D-09 0.000000000000D+00
 7 22  4 26  1 45  0.0 3.431644290686D-05 0.000000000000D+00 5.400000000000D+03
    1.203352685547D+04 2.673702239990D-01-2.793967723846D-09 0.000000000000D+00
    2.237307226562D+04 1.786241531372D-01 1.862645149231D-09 5.000000000000D+00
    2.073057617188D+03-3.560262680054D+00-9.313225746155D-10 0.000000000000D+00
21 22  4 26  1 45  0.0-2.962760627270D-04-2.728484105319D-12 5.400000000000D+03
    1.818072265625D+03-1.557458877563D+00-9.313225746155D-10 0.000000000000D+00
    1.415420654297D+04 2.446866989136D+00 2.793967723846D-09 4.000000000000D+00
   -2.115237304688D+04 1.501962661743D+00 1.862645149231D-09 0.000000000000D+00
 6 22  4 26  1 45  0.0-4.511605948210D-05-1.818989403546D-12 5.400000000000D+03
    3.074725585938D+03-8.114004135132D-01-1.862645149231D-09 0.000000000000D+00
    2.083593115234D+04-1.797138214111D+00 2.793967723846D-09-4.000000000000D+00
   -1.437933886719D+04-2.779802322388D+00 9.313225746155D-10 0.000000000000D+00
19 22  4 26  1 45  0.0-1.867506653070D-04-9.094947017729D-13 5.400000000000D+03
   -1.706464941406D+04 1.280617713928D+00-0.000000000000D+00 0.000000000000D+00
    1.304862060547D+04-1.401622772217D+00 2.793967723846D-09 3.000000000000D+00
    1.374805273438D+04 2.919121742249D+00-1.862645149231D-09 0.000000000000D+00
20 22  4 26  1 45  0.0-6.936211138964D-05-9.094947017729D-13 5.400000000000D+03
   -1.230204101562D+04-3.040008544922D-01-9.313225746155D-10 0.000000000000D+00
    2.144046972656D+04 8.322219848633D-01 4.656612873077D-09 2.000000000000D+00
   -6.191631835938D+03 3.488084793091D+00-0.000000000000D+00 0.000000000000D+00
 9 22  4 26  1 45  0.0 5.177594721317D-05 1.818989403546D-12 5.670000000000D+03
   -5.910711425781D+03-3.053676605225D+00-9.313225746155D-10 0.000000000000D+00
    1.077701464844D+04-1.229877471924D-01 9.313225746155D-10-2.000000000000D+00
    2.235622119141D+04-7.554378509521D-01-2.793967723846D-09 0.000000000000D+00
 7 22  4 26  2 15  0.0 3.431737422943D-05 0.000000000000D+00 7.200000000000D+03
    1.212512402344D+04-1.998758316040D-01-1.862645149231D-09 0.000000000000D+00
    2.198433203125D+04-5.880603790283D-01 2.793967723846D-09 5.000000000000D+00
   -4.332735839844D+03-3.510910987854D+00-0.000000000000D+00 0.000000000000D+00
21 22  4 26  2 15  0.0-2.962807193398D-04-2.728484105319D-12 7.200000000000D+03
   -4.478696289062D+02-9.570913314819D-01-9.313225746155D-10 0.000000000000D+00
    1.840781152344D+04 2.229149818420D+00 3.725290298462D-09 4.000000000000D+00
   -1.766692773438D+04 2.345619201660D+00 9.313225746155D-10 0.000000000000D+00
 6 22  4 26  2 15  0.0-4.511978477240D-05-1.818989403546D-12 7.200000000000D+03
    1.080622070312D+03-1.408502578735D+00-9.313225746155D-10 0.000000000000D+00
    1.724232812500D+04-2.149276733398D+00 3.725290298462D-09-4.000000000000D+00
   -1.876207373047D+04-2.058313369751D+00 9.313225746155D-10 0.000000000000D+00
